[{"OBJECT_NAME":"GEESAT-4 07","OBJECT_ID":"2025-170G","EPOCH":"2026-03-09T22:24:24.561504","MEAN_MOTION":14.83629867,"ECCENTRICITY":0.00182752,"INCLINATION":49.9909,"RA_OF_ASC_NODE":274.3953,"ARG_OF_PERICENTER":33.3608,"MEAN_ANOMALY":326.8478,"EPHEMERIS_TYPE":0,"CLASSIFICATION_TYPE":"U","NORAD_CAT_ID":65125,"ELEMENT_SET_NO":999,"REV_AT_EPOCH":3169,"BSTAR":0.00036149083,"MEAN_MOTION_DOT":2.793e-5,"MEAN_MOTION_DDOT":0},{"OBJECT_NAME":"SL-14 R\/B","OBJECT_ID":"1986-018B","EPOCH":"2026-03-09T17:21:36.966528","MEAN_MOTION":14.86680008,"ECCENTRICITY":0.00180747,"INCLINATION":82.5187,"RA_OF_ASC_NODE":182.8859,"ARG_OF_PERICENTER":65.0322,"MEAN_ANOMALY":295.277,"EPHEMERIS_TYPE":0,"CLASSIFICATION_TYPE":"U","NORAD_CAT_ID":16612,"ELEMENT_SET_NO":999,"REV_AT_EPOCH":4335,"BSTAR":7.8697814e-5,"MEAN_MOTION_DOT":7.25e-6,"MEAN_MOTION_DDOT":0}]
